STARLINK-36291          
1 67195U 25304D   26008.42097899  .00081889  00000+0  13179-2 0  9992
2 67195  70.0001 332.5562 0003009 270.1281  89.9561 15.52568127  4708
STARLINK-36239          
1 67196U 25304E   26008.50002314 -.00418105  00000+0 -10006-1 0  9992
2 67196  69.9997 332.3765 0002590 267.1327 143.0946 15.42901824  4763
STARLINK-36283          
1 67197U 25304F   26008.41994292  .00080042  00000+0  12884-2 0  9998
2 67197  70.0002 332.5525 0003527 265.9078  94.1706 15.52568046  4700
STARLINK-36267          
1 67198U 25304G   26008.42030066  .00084197  00000+0  13563-2 0  9990
2 67198  70.0001 332.5538 0002707 264.2667  95.8211 15.52532660  4677
STARLINK-36268          
1 67199U 25304H   26008.41960609  .00095290  00000+0  15306-2 0  9998
2 67199  70.0002 332.5509 0003025 266.9697  93.1143 15.52565291  4708
STARLINK-36270          
1 67200U 25304J   26008.50002314  .00001929  00000+0  47450-4 0  9994
2 67200  69.9999 332.4023 0003446 279.4715 107.8581 15.42692495  4761
STARLINK-36262          
1 67201U 25304K   26008.50002314 -.02317764  00000+0 -54630-1 0  9991
2 67201  70.0002 332.3510 0003096 275.3062 155.0134 15.45084868  4762
STARLINK-36263          
1 67202U 25304L   26008.48331264 -.00425375  00000+0 -76874-2 0  9999
2 67202  70.0003 332.3718 0003987 259.8368 100.2369 15.51025263  4717
STARLINK-36224          
1 67203U 25304M   26008.41823459  .00081485  00000+0  13115-2 0  9992
2 67203  70.0002 332.5454 0003179 269.1784  90.9038 15.52566579  4703
STARLINK-36185          
1 67204U 25304N   26008.41789175  .00082120  00000+0  13214-2 0  9996
2 67204  70.0002 332.5444 0003109 267.5870  92.4961 15.52569512  4706
STARLINK-36197          
1 67205U 25304P   26008.41754955  .00115743  00000+0  18530-2 0  9999
2 67205  70.0001 332.5430 0003103 270.3156  89.7675 15.52576572  4675
STARLINK-36056          
1 67206U 25304Q   26008.41720654  .00112861  00000+0  18078-2 0  9994
2 67206  70.0002 332.5416 0003214 273.1354  86.9465 15.52574083  4676
