CCSDS_OMM_VERS = 2.0
CREATION_DATE  = 
ORIGINATOR     = 

OBJECT_NAME    = STARLINK-36291
OBJECT_ID      = 2025-304D
CENTER_NAME    = EARTH
REF_FRAME      = TEME
TIME_SYSTEM    = UTC
MEAN_ELEMENT_THEORY = SGP/SGP4

EPOCH          = 2026-01-08T10:06:12.584736
MEAN_MOTION    = 15.52568127
ECCENTRICITY   = .0003009
INCLINATION    = 70.0001
RA_OF_ASC_NODE = 332.5562
ARG_OF_PERICENTER = 270.1281
MEAN_ANOMALY   = 89.9561

EPHEMERIS_TYPE = 0
CLASSIFICATION_TYPE = U
NORAD_CAT_ID   = 67195
ELEMENT_SET_NO = 999
REV_AT_EPOCH   = 470
BSTAR          = .13179E-2
MEAN_MOTION_DOT = .81889E-3
MEAN_MOTION_DDOT = 0

CCSDS_OMM_VERS = 2.0
CREATION_DATE  = 
ORIGINATOR     = 

OBJECT_NAME    = STARLINK-36239
OBJECT_ID      = 2025-304E
CENTER_NAME    = EARTH
REF_FRAME      = TEME
TIME_SYSTEM    = UTC
MEAN_ELEMENT_THEORY = SGP/SGP4

EPOCH          = 2026-01-08T12:00:01.999296
MEAN_MOTION    = 15.42901824
ECCENTRICITY   = .000259
INCLINATION    = 69.9997
RA_OF_ASC_NODE = 332.3765
ARG_OF_PERICENTER = 267.1327
MEAN_ANOMALY   = 143.0946

EPHEMERIS_TYPE = 0
CLASSIFICATION_TYPE = U
NORAD_CAT_ID   = 67196
ELEMENT_SET_NO = 999
REV_AT_EPOCH   = 476
BSTAR          = -.10006E-1
MEAN_MOTION_DOT = -.418105E-2
MEAN_MOTION_DDOT = 0

CCSDS_OMM_VERS = 2.0
CREATION_DATE  = 
ORIGINATOR     = 

OBJECT_NAME    = STARLINK-36283
OBJECT_ID      = 2025-304F
CENTER_NAME    = EARTH
REF_FRAME      = TEME
TIME_SYSTEM    = UTC
MEAN_ELEMENT_THEORY = SGP/SGP4

EPOCH          = 2026-01-08T10:04:43.068288
MEAN_MOTION    = 15.52568046
ECCENTRICITY   = .0003527
INCLINATION    = 70.0002
RA_OF_ASC_NODE = 332.5525
ARG_OF_PERICENTER = 265.9078
MEAN_ANOMALY   = 94.1706

EPHEMERIS_TYPE = 0
CLASSIFICATION_TYPE = U
NORAD_CAT_ID   = 67197
ELEMENT_SET_NO = 999
REV_AT_EPOCH   = 470
BSTAR          = .12884E-2
MEAN_MOTION_DOT = .80042E-3
MEAN_MOTION_DDOT = 0

CCSDS_OMM_VERS = 2.0
CREATION_DATE  = 
ORIGINATOR     = 

OBJECT_NAME    = STARLINK-36267
OBJECT_ID      = 2025-304G
CENTER_NAME    = EARTH
REF_FRAME      = TEME
TIME_SYSTEM    = UTC
MEAN_ELEMENT_THEORY = SGP/SGP4

EPOCH          = 2026-01-08T10:05:13.977024
MEAN_MOTION    = 15.52532660
ECCENTRICITY   = .0002707
INCLINATION    = 70.0001
RA_OF_ASC_NODE = 332.5538
ARG_OF_PERICENTER = 264.2667
MEAN_ANOMALY   = 95.8211

EPHEMERIS_TYPE = 0
CLASSIFICATION_TYPE = U
NORAD_CAT_ID   = 67198
ELEMENT_SET_NO = 999
REV_AT_EPOCH   = 467
BSTAR          = .13563E-2
MEAN_MOTION_DOT = .84197E-3
MEAN_MOTION_DDOT = 0

CCSDS_OMM_VERS = 2.0
CREATION_DATE  = 
ORIGINATOR     = 

OBJECT_NAME    = STARLINK-36268
OBJECT_ID      = 2025-304H
CENTER_NAME    = EARTH
REF_FRAME      = TEME
TIME_SYSTEM    = UTC
MEAN_ELEMENT_THEORY = SGP/SGP4

EPOCH          = 2026-01-08T10:04:13.966176
MEAN_MOTION    = 15.52565291
ECCENTRICITY   = .0003025
INCLINATION    = 70.0002
RA_OF_ASC_NODE = 332.5509
ARG_OF_PERICENTER = 266.9697
MEAN_ANOMALY   = 93.1143

EPHEMERIS_TYPE = 0
CLASSIFICATION_TYPE = U
NORAD_CAT_ID   = 67199
ELEMENT_SET_NO = 999
REV_AT_EPOCH   = 470
BSTAR          = .15306E-2
MEAN_MOTION_DOT = .9529E-3
MEAN_MOTION_DDOT = 0

CCSDS_OMM_VERS = 2.0
CREATION_DATE  = 
ORIGINATOR     = 

OBJECT_NAME    = STARLINK-36270
OBJECT_ID      = 2025-304J
CENTER_NAME    = EARTH
REF_FRAME      = TEME
TIME_SYSTEM    = UTC
MEAN_ELEMENT_THEORY = SGP/SGP4

EPOCH          = 2026-01-08T12:00:01.999296
MEAN_MOTION    = 15.42692495
ECCENTRICITY   = .0003446
INCLINATION    = 69.9999
RA_OF_ASC_NODE = 332.4023
ARG_OF_PERICENTER = 279.4715
MEAN_ANOMALY   = 107.8581

EPHEMERIS_TYPE = 0
CLASSIFICATION_TYPE = U
NORAD_CAT_ID   = 67200
ELEMENT_SET_NO = 999
REV_AT_EPOCH   = 476
BSTAR          = .4745E-4
MEAN_MOTION_DOT = .1929E-4
MEAN_MOTION_DDOT = 0

CCSDS_OMM_VERS = 2.0
CREATION_DATE  = 
ORIGINATOR     = 

OBJECT_NAME    = STARLINK-36262
OBJECT_ID      = 2025-304K
CENTER_NAME    = EARTH
REF_FRAME      = TEME
TIME_SYSTEM    = UTC
MEAN_ELEMENT_THEORY = SGP/SGP4

EPOCH          = 2026-01-08T12:00:01.999296
MEAN_MOTION    = 15.45084868
ECCENTRICITY   = .0003096
INCLINATION    = 70.0002
RA_OF_ASC_NODE = 332.3510
ARG_OF_PERICENTER = 275.3062
MEAN_ANOMALY   = 155.0134

EPHEMERIS_TYPE = 0
CLASSIFICATION_TYPE = U
NORAD_CAT_ID   = 67201
ELEMENT_SET_NO = 999
REV_AT_EPOCH   = 476
BSTAR          = -.5463E-1
MEAN_MOTION_DOT = -.2317764E-1
MEAN_MOTION_DDOT = 0

CCSDS_OMM_VERS = 2.0
CREATION_DATE  = 
ORIGINATOR     = 

OBJECT_NAME    = STARLINK-36263
OBJECT_ID      = 2025-304L
CENTER_NAME    = EARTH
REF_FRAME      = TEME
TIME_SYSTEM    = UTC
MEAN_ELEMENT_THEORY = SGP/SGP4

EPOCH          = 2026-01-08T11:35:58.212096
MEAN_MOTION    = 15.51025263
ECCENTRICITY   = .0003987
INCLINATION    = 70.0003
RA_OF_ASC_NODE = 332.3718
ARG_OF_PERICENTER = 259.8368
MEAN_ANOMALY   = 100.2369

EPHEMERIS_TYPE = 0
CLASSIFICATION_TYPE = U
NORAD_CAT_ID   = 67202
ELEMENT_SET_NO = 999
REV_AT_EPOCH   = 471
BSTAR          = -.76874E-2
MEAN_MOTION_DOT = -.425375E-2
MEAN_MOTION_DDOT = 0

CCSDS_OMM_VERS = 2.0
CREATION_DATE  = 
ORIGINATOR     = 

OBJECT_NAME    = STARLINK-36224
OBJECT_ID      = 2025-304M
CENTER_NAME    = EARTH
REF_FRAME      = TEME
TIME_SYSTEM    = UTC
MEAN_ELEMENT_THEORY = SGP/SGP4

EPOCH          = 2026-01-08T10:02:15.468576
MEAN_MOTION    = 15.52566579
ECCENTRICITY   = .0003179
INCLINATION    = 70.0002
RA_OF_ASC_NODE = 332.5454
ARG_OF_PERICENTER = 269.1784
MEAN_ANOMALY   = 90.9038

EPHEMERIS_TYPE = 0
CLASSIFICATION_TYPE = U
NORAD_CAT_ID   = 67203
ELEMENT_SET_NO = 999
REV_AT_EPOCH   = 470
BSTAR          = .13115E-2
MEAN_MOTION_DOT = .81485E-3
MEAN_MOTION_DDOT = 0

CCSDS_OMM_VERS = 2.0
CREATION_DATE  = 
ORIGINATOR     = 

OBJECT_NAME    = STARLINK-36185
OBJECT_ID      = 2025-304N
CENTER_NAME    = EARTH
REF_FRAME      = TEME
TIME_SYSTEM    = UTC
MEAN_ELEMENT_THEORY = SGP/SGP4

EPOCH          = 2026-01-08T10:01:45.847200
MEAN_MOTION    = 15.52569512
ECCENTRICITY   = .0003109
INCLINATION    = 70.0002
RA_OF_ASC_NODE = 332.5444
ARG_OF_PERICENTER = 267.5870
MEAN_ANOMALY   = 92.4961

EPHEMERIS_TYPE = 0
CLASSIFICATION_TYPE = U
NORAD_CAT_ID   = 67204
ELEMENT_SET_NO = 999
REV_AT_EPOCH   = 470
BSTAR          = .13214E-2
MEAN_MOTION_DOT = .8212E-3
MEAN_MOTION_DDOT = 0

CCSDS_OMM_VERS = 2.0
CREATION_DATE  = 
ORIGINATOR     = 

OBJECT_NAME    = STARLINK-36197
OBJECT_ID      = 2025-304P
CENTER_NAME    = EARTH
REF_FRAME      = TEME
TIME_SYSTEM    = UTC
MEAN_ELEMENT_THEORY = SGP/SGP4

EPOCH          = 2026-01-08T10:01:16.281120
MEAN_MOTION    = 15.52576572
ECCENTRICITY   = .0003103
INCLINATION    = 70.0001
RA_OF_ASC_NODE = 332.5430
ARG_OF_PERICENTER = 270.3156
MEAN_ANOMALY   = 89.7675

EPHEMERIS_TYPE = 0
CLASSIFICATION_TYPE = U
NORAD_CAT_ID   = 67205
ELEMENT_SET_NO = 999
REV_AT_EPOCH   = 467
BSTAR          = .1853E-2
MEAN_MOTION_DOT = .115743E-2
MEAN_MOTION_DDOT = 0

CCSDS_OMM_VERS = 2.0
CREATION_DATE  = 
ORIGINATOR     = 

OBJECT_NAME    = STARLINK-36056
OBJECT_ID      = 2025-304Q
CENTER_NAME    = EARTH
REF_FRAME      = TEME
TIME_SYSTEM    = UTC
MEAN_ELEMENT_THEORY = SGP/SGP4

EPOCH          = 2026-01-08T10:00:46.645056
MEAN_MOTION    = 15.52574083
ECCENTRICITY   = .0003214
INCLINATION    = 70.0002
RA_OF_ASC_NODE = 332.5416
ARG_OF_PERICENTER = 273.1354
MEAN_ANOMALY   = 86.9465

EPHEMERIS_TYPE = 0
CLASSIFICATION_TYPE = U
NORAD_CAT_ID   = 67206
ELEMENT_SET_NO = 999
REV_AT_EPOCH   = 467
BSTAR          = .18078E-2
MEAN_MOTION_DOT = .112861E-2
MEAN_MOTION_DDOT = 0

